QIANFAN-1               
1 60379U 24140A   25213.89431279  .00000128  00000+0  18023-3 0  9999
2 60379  88.9843 313.0102 0016104 233.5177 126.4491 13.50955346 49413
QIANFAN-2               
1 60380U 24140B   25214.21936171  .00000120  00000+0  16677-3 0  9994
2 60380  88.9829 312.8346 0012403 200.7197 159.3453 13.50961949 49512
QIANFAN-3               
1 60381U 24140C   25214.44972614  .00000122  00000+0  16975-3 0  9995
2 60381  88.9822 312.9533 0013095 213.8762 146.1554 13.50960072 49451
QIANFAN-4               
1 60382U 24140D   25213.90666756  .00000126  00000+0  17690-3 0  9992
2 60382  88.9847 312.8735 0012503 204.5296 155.5262 13.50955485 49502
QIANFAN-5               
1 60383U 24140E   25214.47454243  .00000116  00000+0  16169-3 0  9991
2 60383  88.9821 312.9765 0013971 226.5176 133.4814 13.50958691 49443
QIANFAN-6               
1 60384U 24140F   25214.49502121  .00000111  00000+0  15402-3 0  9997
2 60384  88.9848 312.6854 0012461 209.0158 151.0302 13.50955190 49649
QIANFAN-7               
1 60385U 24140G   25214.54736641  .00000601  00000+0  23857-3 0  9997
2 60385  88.9849 309.2363 0017491 113.8859 246.4170 14.27497758 51535
QIANFAN-8               
1 60386U 24140H   25214.50334154  .00000114  00000+0  15773-3 0  9994
2 60386  88.9850 312.9197 0015809 213.2584 146.7574 13.50959189 49527
